,City,City Name,Country,Lng,Lat,Max Temp (F),Humidity (%),Cloudiness (%),Wind Speed (mph)
0,vyazemskiy,Vyazemskiy,RU,134.75,47.54,47.19,59,58,0.65
1,sisimiut,Sisimiut,GL,-53.67,66.94,25.29,92,100,8.84
2,barrow,Barrow,US,-156.79,71.29,8.6,84,1,11.41
3,zhigansk,Zhigansk,RU,123.37,66.77,28.8,95,80,9.89
4,vaini,Vaini,TO,-175.2,-21.2,80.6,78,40,5.82
5,northam,Northam,GB,-4.22,51.03,55,75,83,7
6,manuk mangkaw,Manuk Mangkaw,PH,119.85,4.8,83.77,72,0,4.29
7,cape town,Cape Town,ZA,18.42,-33.93,60.01,93,53,8.05
8,port alfred,Port Alfred,ZA,26.89,-33.59,60.01,89,0,1.01
9,severo-kurilsk,Severo-Kuril'sk,RU,156.12,50.68,38.68,93,100,23.38
10,bredasdorp,Bredasdorp,ZA,20.04,-34.53,55.4,87,18,4.94
11,jamestown,Jamestown,US,-79.24,42.1,46.99,59,90,8.05
12,geraldton,Geraldton,AU,114.6,-28.77,68,88,75,4.7
13,limoux,Arrondissement de Limoux,FR,2.17,42.92,63,88,90,13.87
14,wamba,Wamba,NG,8.6,8.93,76.98,71,100,3.87
15,balabac,Balabac,PH,117.06,7.99,83.79,73,77,2.59
17,lucapa,Lucapa,AO,20.74,-8.42,68.25,68,43,1.66
18,kavaratti,Kavaratti,IN,72.64,10.57,85.64,81,45,14.41
19,kaitangata,Kaitangata,NZ,169.85,-46.28,48,72,27,15.01
20,avarua,Avarua,CK,-159.78,-21.21,80.6,83,4,4.7
21,avdon,Avdon,RU,55.72,54.67,41,65,2,2.24
22,mataura,Mataura,NZ,168.86,-46.19,43.56,89,80,9.04
24,dikson,Dikson,RU,80.55,73.51,6.13,85,93,5.86
25,castro,Castro,BR,-50.01,-24.79,54.88,50,0,2.46
26,clyde river,Clyde River,CA,-68.59,70.47,12.2,85,1,5.82
27,mar del plata,Mar del Plata,AR,-57.56,-38,64,77,34,4.7
29,new norfolk,New Norfolk,AU,147.06,-42.78,46.99,90,66,3.18
30,olafsvik,Olafsvik,IS,-23.71,64.89,43.2,79,97,28.48
32,bluff,Bluff,NZ,168.33,-46.6,46.62,74,73,22.15
33,burnie,Burnie,AU,145.92,-41.07,51.01,70,0,1.99
34,qaanaaq,Qaanaaq,GL,-69.36,77.48,17.28,93,100,3.53
35,arlit,Arlit,NE,7.39,18.74,90.19,10,68,11.1
36,albany,Albany,US,-73.97,42.6,51.01,55,69,14.09
37,ulety,Ulety,RU,112.48,51.36,45.75,39,0,2.62
39,tateyama,Tateyama,JP,139.87,34.98,70,100,75,6.53
40,ginir,Ginir,ET,40.7,7.13,58.62,52,100,4.36
41,hobart,Hobart,AU,147.33,-42.88,51.01,87,40,9.17
42,lagoa,Lagoa,PT,-27.98,39.05,60.67,79,31,25.88
43,santa rosa,Santa Rosa,PH,121.11,14.31,86,79,20,2.24
44,rikitea,Rikitea,PF,-134.97,-23.12,73.33,71,98,12.84
45,airai,Airai,TL,125.41,-8.93,62.19,64,100,4.09
48,lazaro cardenas,Lázaro Cárdenas,MX,-102.2,17.96,83.23,53,7,10.76
49,the valley,The Valley,AI,-63.06,18.22,82,79,1,4
50,asau,Asău,RO,26.4,46.43,48.99,85,98,3.53
51,christchurch,Christchurch,NZ,172.63,-43.53,51.01,76,95,13.87
52,alofi,Alofi,NU,-169.92,-19.06,84.2,70,40,16.11
53,kapaa,Kapaa,US,-159.32,22.08,80.6,61,75,19.46
54,busselton,Busselton,AU,115.33,-33.65,55.99,74,99,14.34
55,mancio lima,Mâncio Lima,BR,-72.9,-7.61,75.83,87,71,1.32
56,camopi,Camopi,GF,-52.32,3.17,75.47,95,100,2.91
57,chuy,Chui,UY,-53.46,-33.7,57.4,95,99,3.04
58,saint-philippe,Saint-Philippe,RE,55.77,-21.36,75.2,73,41,5.82
59,ribeira grande,Ribeira Grande,PT,-28.7,38.52,61.25,77,62,23.8
60,nishihara,Nishihara,JP,127.76,26.18,77,94,75,5.82
61,torbay,Torbay,CA,-52.73,47.67,39.2,85,40,10.29
62,ilulissat,Ilulissat,GL,-51.1,69.22,23,67,100,9.17
63,ushuaia,Ushuaia,AR,-68.3,-54.8,44.6,81,1,23.04
64,mount gambier,Mount Gambier,AU,140.77,-37.83,44.6,100,2,8.05
65,talnakh,Talnakh,RU,88.4,69.49,10.4,85,40,29.08
66,georgetown,George Town,MY,100.34,5.41,80.6,94,20,3.36
67,beringovskiy,Beringovskiy,RU,179.32,63.05,27.68,93,28,7.25
68,souillac,Souillac,MU,57.52,-20.52,75.2,78,20,5.82
69,longyearbyen,Longyearbyen,SJ,15.64,78.22,20.57,91,41,5.08
70,saint george,Saint George,US,-113.58,37.1,82.99,13,1,8.05
71,evanston,Evanston,US,-87.69,42.04,43,75,20,11.41
72,bayji,Bayjī,IQ,43.49,34.93,79.34,30,100,8.7
73,kirakira,Kirakira,SB,161.92,-10.45,84.58,72,37,6.02
74,pevek,Pevek,RU,170.31,69.7,17.1,95,96,6.24
75,katsuura,Katsuura,JP,140.3,35.13,70,100,75,5.32
76,moanda,Moanda,GA,13.22,-1.56,73.26,84,100,3.31
77,krasnoselkup,Krasnosel'kup,RU,82.47,65.7,14.52,94,61,15.95
78,kohlu,Kohlu,PK,69.25,29.9,69.78,20,0,1.92
79,plouzane,Plouzané,FR,-4.62,48.38,59,93,100,12.75
80,kahului,Kahului,US,-156.47,20.89,84.2,54,40,21.92
81,srandakan,Srandakan,ID,110.25,-7.94,77.52,85,67,4.14
82,puerto ayora,Puerto Ayora,EC,-90.35,-0.74,82.4,74,75,17.22
83,ostrovnoy,Ostrovnoy,RU,39.51,68.05,34.72,88,15,15.9
84,la libertad,La Libertad,EC,-80.9,-2.23,82.4,74,4,5.82
85,odweyne,Oodweyne,SO,45.06,9.41,76.77,51,87,5.3
86,tiksi,Tiksi,RU,128.87,71.69,18.09,97,100,9.51
87,hermanus,Hermanus,ZA,19.23,-34.42,59,83,40,4
88,avera,Avera,US,-82.53,33.19,86,45,40,8.05
89,akdepe,Akdepe,TM,59.38,42.06,64.4,77,3,13.87
90,olinda,Olinda,BR,-34.86,-8.01,82.4,74,20,12.75
91,oksbol,Oksbøl,DK,8.29,55.63,44.01,86,0,6.93
92,tuktoyaktuk,Tuktoyaktuk,CA,-133.04,69.45,15.8,78,20,11.41
93,lavrentiya,Lavrentiya,RU,-171,65.58,31.86,92,0,5.53
94,bambous virieux,Bambous Virieux,MU,57.76,-20.34,75.99,78,20,5.82
95,butaritari,Butaritari,KI,172.79,3.07,82.76,82,99,15.75
96,khatanga,Khatanga,RU,102.5,71.97,2.05,92,78,14.79
98,moreira sales,Moreira Sales,BR,-53.01,-24.06,65.21,66,44,3.98
101,port hedland,Port Hedland,AU,118.57,-20.32,59,77,0,8.05
102,bethel,Bethel,US,-73.41,41.37,55.4,47,75,17.22
104,praia da vitoria,Praia da Vitória,PT,-27.07,38.73,59,87,20,16.08
105,prokopion,Prokópi,GR,23.48,38.73,54,71,40,4.7
106,kismayo,Kismayo,SO,42.55,-0.36,81.09,85,100,11.72
107,mahebourg,Mahébourg,MU,57.7,-20.41,75.2,78,20,5.82
108,tagusao,Tagusao,PH,117.81,9.19,82.51,77,87,3.67
109,upernavik,Upernavik,GL,-56.15,72.79,21.13,95,100,20.02
110,touros,Touros,BR,-35.46,-5.2,77,94,40,4.7
111,asosa,Āsosa,ET,34.53,10.07,68.59,47,99,0.67
113,carbonear,Carbonear,CA,-53.21,47.73,43,86,40,10.29
114,la ronge,La Ronge,CA,-105.28,55.1,59,43,20,11.41
115,dandeli,Dandeli,IN,74.62,15.27,72.93,81,37,3.04
116,khonsa,Khonsa,IN,95.57,27.02,63.32,71,16,3.31
117,hilo,Hilo,US,-155.09,19.73,84.2,54,1,12.75
118,punta arenas,Punta Arenas,CL,-70.92,-53.15,41,80,0,3.36
119,narsaq,Narsaq,GL,-46.05,60.92,41,60,99,6.93
120,pacific grove,Pacific Grove,US,-121.92,36.62,64.99,55,1,13.87
121,quirinopolis,Quirinópolis,BR,-50.45,-18.45,69.19,63,1,1.81
122,tautira,Tautira,PF,-149.15,-17.73,87.8,66,34,3.36
123,ahipara,Ahipara,NZ,173.17,-35.17,61.66,68,37,16.04
124,bergen,Bergen,NO,5.33,60.39,39.2,80,20,12.75
125,bengkulu,Bengkulu,ID,102.27,-3.8,76.17,85,99,4.94
126,preston,Preston,GB,-2.72,53.77,46,79,0,1.01
127,sorland,Sørland,NO,12.69,67.67,38.98,78,100,20.24
128,yakeshi,Yakeshi,CN,120.73,49.28,43.16,56,0,4
130,saint-pierre,Saint-Pierre,RE,55.48,-21.34,75.2,73,2,5.82
131,half moon bay,Half Moon Bay,US,-122.43,37.46,75.2,72,1,19.46
132,manaus,Manaus,BR,-60.02,-3.1,84.2,83,40,2.24
133,smithers,Smithers,CA,-127.17,54.78,55.4,30,20,4.7
135,sitka,Sitka,US,-135.33,57.05,53.6,46,40,10.29
136,pangai,Pangai,TO,-174.35,-19.8,82.4,74,20,6.93
137,nikolskoye,Nikolskoye,RU,30.79,59.7,39.2,93,93,4.47
138,komsomolskiy,Yangi Marg`ilon,UZ,71.72,40.43,64.4,55,98,2.24
139,malakal,Malakal,SS,31.66,9.53,82.35,51,34,4.47
140,san isidro,San Isidro,PE,-77.05,-12.12,71.6,73,81,3.36
141,saskylakh,Saskylakh,RU,114.08,71.92,7.84,94,100,11.81
142,norman wells,Norman Wells,CA,-126.83,65.28,39.2,55,75,18.34
143,sola,Sola,VU,167.55,-13.88,83.03,72,41,6.31
145,anadyr,Anadyr,RU,177.48,64.75,21.2,85,75,11.18
146,rio gallegos,Río Gallegos,AR,-69.22,-51.62,41,80,24,10.29
147,arraial do cabo,Arraial do Cabo,BR,-42.03,-22.97,72.41,72,5,10.89
148,victoria,Hong Kong,HK,114.16,22.29,80.01,78,30,11.01
149,carnarvon,Carnarvon,AU,113.63,-24.87,60.8,100,90,5.82
150,vimperk,Vimperk,CZ,13.78,49.06,50,89,100,5.66
151,kodiak,Saint Paul Harbor,US,-152.41,57.79,48.2,87,90,9.17
152,vavuniya,Vavuniya,LK,80.5,8.75,76.57,86,48,2.71
153,honiara,Honiara,SB,159.95,-9.43,84.2,74,20,2.24
154,ponta do sol,Ponta do Sol,PT,-17.1,32.67,64.4,59,20,4.7
155,ilesha,Ilesha,NG,5.26,7.14,75.51,85,77,0.38
156,kloulklubed,Kloulklubed,PW,134.26,7.04,80.6,88,75,5.7
158,henties bay,Henties Bay,NA,14.28,-22.12,64.17,62,0,6.76
159,upington,Upington,ZA,21.26,-28.45,57.2,21,0,6.51
160,east london,East London,ZA,27.91,-33.02,65.21,74,0,10.78
161,oranjemund,Oranjemund,NA,16.43,-28.55,58.35,78,0,12.97
162,yellowknife,Yellowknife,CA,-114.35,62.46,39.2,51,20,4.7
163,lodwar,Lodwar,KE,35.6,3.12,83.91,50,63,6.85
164,vostok,Vostok,RU,135.88,46.49,42.39,58,32,3.74
166,namatanai,Namatanai,PG,152.43,-3.67,83.3,79,79,8.48
167,paamiut,Paamiut,GL,-49.67,61.99,32.07,95,100,13.96
168,westport,Westport,US,-73.36,41.14,57.99,52,75,17.69
169,chopovychi,Chopovychi,UA,28.95,50.83,49.6,88,99,9.1
170,hami,Kumul,CN,93.45,42.8,65.93,26,97,10.83
171,margate,Margate,GB,1.39,51.38,50,75,19,4
172,longido,Longido,TZ,36.68,-2.73,64.49,60,73,7.38
173,hithadhoo,Hithadhoo,MV,73.08,-0.6,84.54,73,60,10.51
174,san patricio,San Patricio,MX,-104.7,19.22,77,83,40,5.82
175,atuona,Atuona,PF,-139.03,-9.8,81.91,70,0,18.05
177,cap malheureux,Cap Malheureux,MU,57.61,-19.98,75.99,75,5,3
178,nanortalik,Nanortalik,GL,-45.24,60.14,35.82,86,100,6.69
179,virginia beach,Virginia Beach,US,-75.98,36.85,79,25,20,12.75
180,ponta delgada,Ponta Delgada,PT,-25.67,37.73,60.8,82,40,21.92
182,namibe,Mossamedes,AO,12.15,-15.2,77.52,59,0,1.88
183,thompson,Thompson,CA,-97.86,55.74,50,34,40,4.7
184,kyabe,Kyabé,TD,18.94,9.45,81.64,50,78,5.53
185,provideniya,Provideniya,RU,-173.3,64.38,38.26,62,6,3.04
187,nuuk,Nuuk,GL,-51.72,64.18,30.2,74,40,2.24
188,aksu,Aksu,CN,80.26,41.12,62.46,34,41,2.68
189,hambantota,Hambantota,LK,81.12,6.12,81.18,84,98,8.3
190,sao miguel do araguaia,São Miguel do Araguaia,BR,-50.16,-13.28,75,70,28,2.53
191,kosh-agach,Kosh-Agach,RU,88.67,50,28.27,47,75,3.2
192,kavieng,Kavieng,PG,150.8,-2.57,84.38,77,98,11.05
193,banda aceh,Banda Aceh,ID,95.32,5.56,80.78,77,84,7.49
194,nassau,Nassau,US,-73.58,40.75,60.8,38,1,18.34
195,mankono,Mankono,CI,-6.19,8.06,75.15,82,99,3.15
197,lompoc,Lompoc,US,-120.46,34.64,69.8,46,1,19.46
198,mehamn,Mehamn,NO,27.85,71.04,39.2,79,75,17.22
199,yulara,Yulara,AU,130.99,-25.24,48.2,42,0,8.05
200,starokostyantyniv,Starokostiantyniv,UA,27.2,49.76,48.94,83,81,11.54
201,pisco,Pisco,PE,-76.22,-13.7,69.01,77,75,20.8
202,srednekolymsk,Srednekolymsk,RU,153.68,67.45,28.42,98,100,8.59
203,thanh hoa,Thanh Hoa,VN,105.77,19.8,78.75,90,82,4.14
204,kruisfontein,Kruisfontein,ZA,24.73,-34,57.78,73,12,6.51
205,ostersund,Östersund,SE,14.64,63.18,33.8,87,3,12.75
206,tekari,Tekāri,IN,84.83,24.93,84.99,44,0,6.15
208,ancud,Ancud,CL,-73.82,-41.87,53.6,76,55,4.7
209,cherskiy,Cherskiy,RU,161.3,68.75,28.31,96,100,3.49
210,aktash,Aktash,RU,87.73,50.3,20.88,50,70,4.12
211,chokurdakh,Chokurdakh,RU,147.92,70.63,20.34,97,100,3.09
212,mangai,Mangai,CD,19.53,-4.05,73.96,76,38,1.07
214,verkhoyansk,Verkhoyansk,RU,133.38,67.54,24.78,88,0,2.68
215,shetpe,Shetpe,KZ,52.12,44.17,64.78,45,25,25.88
216,chisec,Chisec,GT,-90.28,15.82,87.24,54,38,5.73
217,pilikwe,Pilikwe,BW,27.19,-22.8,60.64,54,0,9.95
218,haines junction,Haines Junction,CA,-137.51,60.75,46.87,48,65,5.7
219,remanso,Remanso,BR,-42.08,-9.62,79.65,58,75,12.15
220,raudeberg,Raudeberg,NO,5.14,61.99,35.01,86,97,2.06
221,bilibino,Bilibino,RU,166.44,68.05,19.92,86,0,2.04
222,comodoro rivadavia,Comodoro Rivadavia,AR,-67.5,-45.87,50,71,40,10.29
223,kolo,Koło,PL,18.64,52.2,50,87,99,1.01
224,baruni,Bāruni,IN,85.98,25.48,83.62,51,0,5.41
225,sainte-savine,Sainte-Savine,FR,4.05,48.3,57.2,71,48,10.29
226,alicia,Alicia,PH,121.7,16.78,80.19,80,63,3.89
227,finspang,Finspång,SE,15.77,58.71,42.8,75,100,12.75
228,general pico,General Pico,AR,-63.76,-35.66,61.7,73,1,5.97
229,shache,Shache,CN,77.24,38.42,64.8,17,0,5.79
230,vardo,Vardø,NO,31.11,70.37,35.6,93,75,10.29
231,verkhnetulomskiy,Verkhnetulomskiy,RU,31.8,68.61,35.6,100,75,6.71
232,qaqortoq,Qaqortoq,GL,-46.03,60.72,41,60,100,6.93
235,san cristobal,San Cristobal,VE,-72.22,7.77,89.6,55,40,9.17
237,saldanha,Saldanha,ZA,17.94,-33.01,55.4,82,68,4.7
238,palmer,Palmer,US,-72.33,42.16,57.2,47,75,14.99
239,qurayyat,Qurayyat,SA,37.34,31.33,66.2,42,0,13.87
240,guntakal,Guntakal,IN,77.38,15.17,80.71,54,41,4.7
241,lebu,Lebu,CL,-73.65,-37.62,57.42,92,65,4.97
242,esperance,Esperance,AU,121.9,-33.87,60.8,100,75,4.7
243,bhainsdehi,Bhainsdehi,IN,77.63,21.65,80.92,23,0,8.95
244,college,College,US,-147.8,64.86,60.01,33,40,3.36
245,muros,Muros,ES,-9.06,42.78,60.01,81,43,15.99
246,sangar,Sangar,RU,127.47,63.92,29.44,89,0,1.83
247,bosobolo,Bosobolo,CD,19.9,4.18,76.1,70,57,1.36
248,gazanjyk,Bereket,TM,55.52,39.24,75.2,36,42,5.55
249,imbituba,Imbituba,BR,-48.67,-28.24,69.8,73,0,16.11
250,cozumel,San Miguel de Cozumel,MX,-86.95,20.51,89.6,59,20,8.05
251,katangli,Katangli,RU,143.23,51.71,31.84,94,100,15.97
252,port hardy,Port Hardy,CA,-127.42,50.7,53.6,62,90,23.04
253,buala,Buala,SB,159.59,-8.14,85.32,70,89,5.73
254,itoman,Itoman,JP,127.67,26.12,77,94,75,8.05
255,ruteng,Ruteng,ID,120.47,-8.61,63.95,73,99,2.01
256,taltal,Taltal,CL,-70.48,-25.4,59.68,79,27,4.74
257,cabo san lucas,Cabo San Lucas,MX,-109.91,22.89,93.2,16,5,16.11
258,waipawa,Waipawa,NZ,175.52,-41.41,53.01,87,92,16.11
259,necochea,Necochea,AR,-58.74,-38.55,55.99,82,44,1.99
260,tura,Tura,IN,90.22,25.52,72.28,68,0,3.78
261,yagodnoye,Yagodnoye,RU,149.67,62.55,23.52,90,99,4.25
262,tanda,Tāndā,IN,82.65,26.55,81.73,48,25,7.36
263,brae,Brae,GB,-1.35,60.4,39.2,80,91,9.17
264,fairbanks,Fairbanks,US,-147.72,64.84,60.01,33,40,3.36
265,catia la mar,Catia La Mar,VE,-67.03,10.6,78.01,70,65,13.87
266,skjervoy,Skjervøy,NO,20.97,70.03,38.19,76,99,24.36
267,kassala,Kassala,SD,36.4,15.45,81.97,13,21,7.72
268,ust-nera,Ust-Nera,RU,143.2,64.57,26.49,88,99,5.21
269,ishigaki,Ishigaki,JP,124.16,24.34,75.2,100,40,2.24
270,slave lake,Slave Lake,CA,-114.77,55.28,48.2,70,75,6.93
271,camacha,Camacha,PT,-16.33,33.08,66.2,72,20,10.29
273,bahia honda,Bahía Honda,CU,-83.16,22.9,81.12,62,21,10.63
274,alekseyevka,Alekseyevka,RU,38.69,50.63,55.4,85,73,5.99
275,manta,Manta,EC,-80.73,-0.95,82.4,74,75,12.75
276,grindavik,Grindavik,IS,-22.43,63.84,44.6,87,90,31.09
277,salalah,Salalah,OM,54.09,17.02,84.2,83,40,5.82
278,nacala,Nacala,MZ,40.67,-14.54,71.11,87,1,8.1
279,otane,Otane,NZ,176.63,-39.88,52,89,65,14
281,nianzishan,Nianzishan,CN,122.88,47.52,44.01,70,6,3
282,nadadores,Nadadores,MX,-101.6,27.05,102,11,3,4
283,tunceli,Tunceli,TR,39.55,39.11,53.6,71,40,5.82
284,tadine,Tadine,NC,167.88,-21.55,74.35,83,100,15.35
285,boyolangu,Boyolangu,ID,111.89,-8.12,76.12,88,55,1.07
286,vao,Vao,NC,167.48,-22.67,72.45,77,100,21.16
287,ouadda,Ouadda,CF,22.4,8.08,70.23,71,49,3.51
288,fortuna,Fortuna,US,-124.16,40.6,63,45,20,14.99
289,ko samui,Ko Samui,TH,99.94,9.54,82.4,83,20,6.51
290,altay,Altay,CN,88.12,47.87,48.18,53,91,3.78
291,te anau,Te Anau,NZ,167.72,-45.42,42.3,79,95,7.23
292,yarada,Yārāda,IN,83.27,17.65,82.4,88,40,4.7
294,iguape,Iguape,BR,-47.56,-24.71,66.79,77,1,8.25
295,fredericton,Fredericton,CA,-66.67,45.95,48.2,87,90,11.41
296,bud,Bud,US,-86.18,39.45,62.01,51,1,6.13
297,nantucket,Nantucket,US,-70.1,41.28,60.8,51,75,9.17
298,north bend,North Bend,US,-124.22,43.41,60.01,67,90,8.05
299,banyo,Banyo,CM,11.82,6.75,65.8,58,64,2.1
300,kharp,Kharp,RU,65.81,66.8,19.89,96,100,3.78
301,svetlogorsk,Forsytheganj,BY,29.73,52.63,53.02,86,100,7.31
302,brive-la-gaillarde,Arrondissement de Brive-la-Gaillarde,FR,1.5,45.25,64,88,100,4
303,port elizabeth,Port Elizabeth,ZA,25.57,-33.92,57.2,100,5,2.24
304,southbridge,Southbridge,US,-72.03,42.08,55.99,53,71,7
306,saint-francois,Saint-François,FR,3.91,46.42,62.6,67,62,8.05
308,husavik,Husavik,IS,-17.34,66.04,50,63,20,39.15
309,waitati,Waitati,NZ,170.57,-45.75,52,68,29,20
310,makakilo city,Makakilo City,US,-158.09,21.35,84.2,54,75,14.99
311,fengxian,Fengxian,CN,116.59,34.7,59.43,60,88,10.63
312,plainview,Plainview,US,-73.47,40.78,61,38,1,18.34
313,harare,Harare,ZW,31.05,-17.83,55.4,41,38,4.18
314,coihaique,Coyhaique,CL,-72.07,-45.58,44.6,87,40,0.18
315,milkovo,Mil'kovo,RU,158.62,54.72,33.24,86,100,8.99
317,nikolayevsk-na-amure,Nikolayevsk-on-Amur,RU,140.73,53.14,35.26,82,100,9.33
318,kattivakkam,Kattivākkam,IN,80.32,13.22,84.99,83,1,5.82
319,angoche,Angoche,MZ,39.91,-16.23,74.12,73,1,9.4
320,biltine,Biltine,TD,20.92,14.53,88.41,11,98,12.64
322,broken hill,Broken Hill,AU,141.43,-31.95,44.6,87,0,4.7
323,marzuq,Marzuq,YE,46.47,14.4,77.14,39,100,6.6
324,namie,Namie,JP,141,37.48,72,68,71,1.99
325,luderitz,Lüderitz,NA,15.16,-26.65,68.32,43,0,14.56
326,vanavara,Vanavara,RU,102.28,60.34,45.68,58,100,9.06
327,sao filipe,São Filipe,CV,-24.5,14.9,76.48,68,44,13.94
329,auki,Auki,SB,160.7,-8.77,86.13,65,97,2.33
330,moose factory,Moose Factory,CA,-80.61,51.26,24.8,58,75,9.17
331,jackson,Jackson,US,-122.83,42.42,73.99,21,1,8.05
332,cacoal,Cacoal,BR,-61.45,-11.44,75.79,86,48,3.98
333,tuatapere,Tuatapere,NZ,167.68,-46.13,44.69,81,100,13.85
334,bandarbeyla,Bandarbeyla,SO,50.81,9.49,82.89,75,100,8.12
335,lang suan,Lang Suan,TH,99.08,9.95,78.51,83,68,2.3
336,port lincoln,Port Lincoln,AU,135.87,-34.73,58.66,50,31,14.65
337,prado,Prado,BR,-39.22,-17.34,71.76,78,23,7
338,tuy hoa,Tuy Hoa,VN,109.3,13.08,75.6,87,1,3.58
339,san jose,San Jose,US,-121.89,37.34,81,16,40,10.29
340,leningradskiy,Leningradskiy,RU,178.42,69.38,22.93,88,0,3.13
341,maningrida,Maningrida,AU,134.27,-12.07,77.92,78,90,14.03
342,cayenne,Cayenne,GF,-52.33,4.93,77,100,100,13.76
344,port hawkesbury,Port Hawkesbury,CA,-61.35,45.62,39,100,90,14.99
345,hyeres,Hyères,FR,6.12,43.12,59,93,16,2.24
347,primorsk,Prymors'k,UA,36.34,46.73,58.3,83,77,5.73
348,ulaanbaatar,Ulaanbaatar,MN,106.88,47.91,44.6,30,40,2.24
349,fomboni,Fomboni,KM,43.74,-12.28,81.59,81,66,16.62
351,ransang,Ransang,PH,117.58,8.96,82.11,77,86,3.38
352,kara-tyube,Kara-Tyube,RU,45.44,44.63,57.99,81,100,5.41
353,aswan,Aswān,EG,32.91,24.09,79.92,16,24,7.27
354,tahoua,Tahoua,NE,5.27,14.89,85.44,33,66,7.47
355,kerema,Kerema,PG,145.78,-7.96,80.28,82,98,1.03
357,oussouye,Oussouye,SN,-16.55,12.48,77,73,18,6.93
358,shingu,Shingū,JP,135.98,33.73,71.53,69,26,1.25
359,kawalu,Kawalu,ID,108.21,-7.38,72.5,82,86,2.64
360,ovalle,Ovalle,CL,-71.2,-30.6,58.95,64,1,2.86
361,gambo,Gambo,CF,22.26,4.65,72.18,81,52,1.32
362,orlik,Orlik,RU,99.83,52.52,47.73,36,100,7.11
363,mandalgovi,Mandalgovi,MN,106.27,45.76,56.26,18,93,5.99
364,amuntai,Amuntai,ID,115.25,-2.42,75.85,90,41,1.61
365,zheleznodorozhnyy,Zheleznodorozhnyy,RU,38,55.75,59,87,98,4.47
366,berlevag,Berlevåg,NO,29.09,70.86,38.17,85,97,21.7
367,volterra,Volterra,IT,10.86,43.4,57,68,0,1.01
368,yumen,Yumen,CN,97.2,40.28,57.31,21,100,5.82
369,sinnamary,Sinnamary,GF,-52.95,5.38,78.67,86,91,13.65
370,venado tuerto,Venado Tuerto,AR,-61.97,-33.75,57.99,75,14,1.99
371,maldonado,Departamento de Maldonado,UY,-54.92,-34.67,60.01,89,100,5.06
372,berberati,Berbérati,CF,15.79,4.26,71.28,80,92,4.65
373,cockburn town,Cockburn Town,TC,-71.14,21.46,80.26,74,64,10.22
374,byron bay,Byron Bay,AU,153.62,-28.65,62.6,67,54,11.41
375,pangnirtung,Pangnirtung,CA,-65.71,66.15,12.2,78,90,14.99
377,zaranj,Zaranj,AF,61.88,30.97,80.11,20,0,8.95
378,bathsheba,Bathsheba,BB,-59.52,13.22,82.4,69,20,20.8
379,lexington,Lexington,US,-84.48,37.99,71.01,52,1,8.05
380,manbij,Manbij,SY,37.95,36.53,48.2,100,55,3.87
382,dhidhdhoo,Dhidhdhoo,MV,73.1,6.88,85.51,80,100,12.41
383,along,Along,IN,94.77,28.17,64.4,75,22,1.25
384,viana,Viana,BR,-40.5,-20.39,75.2,73,64,5.82
385,maridi,Maridi,SS,29.47,4.92,71.96,69,97,2.04
386,san matias,San Matías,BO,-58.4,-16.37,78.82,59,81,4.97
387,kargasok,Kargasok,RU,80.86,59.06,37.15,85,100,14.65
388,iqaluit,Iqaluit,CA,-68.51,63.75,15.8,66,90,2.24
389,flinders,Flinders,AU,150.86,-34.58,60.01,76,26,3
390,sakakah,Sakakah,SA,40.21,29.97,80.6,14,90,8.05
391,aksarayskiy,Aksarayskiy,RU,48.01,46.79,64.4,72,1,13.42
392,san carlos de bariloche,Bariloche,AR,-71.31,-41.15,42.8,81,40,5.82
393,sungairaya,Sungai Raya,ID,108.9,0.7,79.74,84,75,3.22
394,gizo,Gizo Government Station,SB,156.84,-8.1,84.18,73,61,10.04
395,sakaiminato,Sakaiminato,JP,133.23,35.55,59,82,75,12.75
396,brookings,Brookings,US,-96.8,44.31,50,87,90,9.17
397,alyangula,Alyangula,AU,136.42,-13.85,78.8,65,84,1.12
398,marawi,Marawi,PH,124.29,8,77,86,13,7
399,rumoi,Rumoi,JP,141.64,43.93,42.33,76,100,13.78
400,umarkot,Umarkot,PK,69.74,25.36,84.16,45,0,2.64
401,chippewa falls,Chippewa Falls,US,-91.39,44.94,60.8,31,1,12.75
402,kaura namoda,Kaura Namoda,NG,6.58,12.59,90.82,24,57,10.22
403,hoopstad,Hoopstad,ZA,25.91,-27.83,60.44,23,6,0.4
404,provins,Arrondissement de Provins,FR,3.17,48.58,55.4,76,90,6.93
405,ambovombe,Ambovombe,MG,46.08,-25.17,68.88,77,2,9.24
406,narasannapeta,Narasannapeta,IN,84.05,18.42,82.31,83,94,10.31
407,khasan,Khasan,RU,130.64,42.43,50.52,63,0,2.19
408,padang,Padang,ID,100.35,-0.95,79.3,74,49,4.79
409,butler,Butler,US,-84.57,39.45,64.99,42,1,4.7
410,saint-augustin,Saint-Augustin,CA,-58.65,51.23,36.27,81,35,5.12
411,sosnovo,Sosnovo,RU,30.21,60.55,41,68,0,1.95
412,russell,Russell,US,-85.2,32.35,86,45,1,6.93
413,salvador,El Salvador,SV,-88.92,13.83,87.8,74,40,11.41
414,balaipungut,Balaipungut,ID,101.28,1.05,78.8,94,40,0.96
415,voi,Voi,KE,38.56,-3.39,71.56,72,16,7.29
416,werneck,Werneck,DE,10.1,49.98,44.01,93,0,2.73
417,hovd,Khovd,MN,91.64,48.01,49.53,28,11,10.22
418,kashi,Kashgar,CN,75.98,39.45,60.8,48,0,8.95
419,hofn,Hofn,IS,-15.21,64.25,45.46,78,100,20.45
420,tshikapa,Tshikapa,CD,20.8,-6.42,72.43,78,5,1.99
421,hibbing,Hibbing,US,-92.94,47.43,48.2,39,1,12.75
422,aracati,Aracati,BR,-37.77,-4.56,78.04,87,100,15.01
423,dingle,Dingle,PH,122.67,11,82.35,79,92,4.18
424,kuningan,Kuningan,ID,108.48,-6.98,70.74,78,73,1.19
425,xambioa,Xambioá,BR,-48.54,-6.41,76.57,90,97,0.65
426,lasa,Laas,IT,10.7,46.62,48.2,70,40,3.6
427,sucua,Sucúa,EC,-78.17,-2.47,75.2,69,20,8.05
428,metkovic,Metković,HR,17.65,43.05,52.29,63,0,4.12
429,taitung,Taitung City,TW,121.14,22.76,77,73,0,4.7
430,deputatskiy,Deputatsky,RU,139.9,69.3,14.94,91,99,2.01
431,yar-sale,Yar-Sale,RU,70.83,66.83,13.42,91,60,7.23
433,murud,Murud,IN,72.97,18.33,78.3,85,10,5.03
434,puerto escondido,Puerto Escondido,MX,-97.07,15.85,89.6,66,5,6.93
435,kalmunai,Kalmunai,LK,81.82,7.42,81.14,78,100,1.16
436,hobyo,Hobyo,SO,48.53,5.35,84.06,77,71,12.64
437,acari,Acarí,PE,-74.62,-15.43,71.1,61,78,5.35
438,kiruna,Kiruna,SE,20.23,67.86,33.8,74,82,2.42
439,faanui,Faanui,PF,-151.75,-16.48,81.82,77,8,11.63
440,mabaruma,Mabaruma,GY,-59.78,8.2,76.87,83,100,4.74
441,syracuse,Syracuse,IT,15.28,37.09,55.4,87,0,5.82
442,spencer,Spencer,US,-95.14,43.14,53.01,70,100,12.24
444,nome,Nome,US,-165.41,64.5,44.6,45,1,11.41
445,bani,Baní,DO,-70.33,18.28,82.99,79,46,1.99
447,alta floresta,Alta Floresta,BR,-56.09,-9.88,75.74,79,33,2.68
448,ambulu,Ambulu,ID,113.61,-8.35,76.77,87,16,3.6
449,porto novo,Porto-Novo,BJ,2.6,6.5,82.4,83,20,4.7
450,heihe,Heihe,CN,127.49,50.24,37.4,55,74,6.71
451,jan kempdorp,Jan Kempdorp,ZA,24.83,-27.92,60.17,21,2,7.43
452,cidreira,Cidreira,BR,-50.21,-30.18,66.83,75,34,10.78
453,belomorsk,Belomorsk,RU,34.77,64.52,37.51,93,0,6.35
454,mandurah,Mandurah,AU,115.7,-32.55,61,89,97,10.76
455,sorong,Sorong,ID,131.25,-0.88,82.18,78,100,7.67
456,vila,Vila,PT,-8.16,42.03,53.01,92,66,5.99
457,richards bay,Richards Bay,ZA,32.04,-28.78,66.38,88,78,3.51
458,mayo,Mayo,US,-76.51,38.89,68,32,1,16.11
459,muisne,Muisne,EC,-80.03,0.6,82.4,88,75,8.05
460,soyo,Soyo,AO,12.37,-6.13,78.76,89,99,5.19
461,constitucion,Constitución,CL,-72.42,-35.33,57.96,78,98,8.61
462,rafaela,Rafaela,AR,-61.49,-31.25,63,88,40,4.29
463,albion,Albion,US,-84.75,42.24,57.2,55,1,4.7
464,lata,Lata,PT,-8.33,40.16,62.01,89,96,3.91
465,biak,Biak,ID,122.88,-0.91,79.14,80,100,6.22
466,viedma,Viedma,AR,-63,-40.81,51.39,84,100,14.99
468,punta gorda,Punta Gorda,US,-82.05,26.93,84.2,48,1,14.99
469,oktyabrskiy,Oktyabr'skiy,RU,53.47,54.48,50.74,61,97,3.4
471,hvide sande,Hvide Sande,DK,8.13,56,44.01,85,0,1.01
472,gushikawa,Gushikawa,JP,127.87,26.35,77,94,75,4.7
473,salisbury,Salisbury,GB,-1.8,51.07,50,66,55,18.34
474,dali,Dali,CN,100.18,25.7,55.92,48,14,4.99
475,korla,Korla,CN,86.15,41.76,67.64,28,100,8.25
476,nouakchott,Nouakchott,MR,-15.98,18.09,73.4,73,0,18.34
477,machilipatnam,Machilipatnam,IN,81.13,16.17,82.65,83,54,5.26
479,tazovskiy,Tazovsky,RU,78.7,67.47,7.9,94,0,8.39
480,point pedro,Point Pedro,LK,80.23,9.82,82.67,78,0,9.04
481,crotone,Crotone,IT,17.12,39.09,58.08,67,0,4.99
482,mildura,Mildura,AU,142.15,-34.2,48,100,0,1.12
483,kutum,Kutum,SD,24.67,14.2,70.36,15,40,1.3
485,eureka,Eureka,US,-124.16,40.8,64.99,26,1,4.7
486,inyonga,Inyonga,TZ,32.07,-6.72,63.72,64,28,3.89
487,vacaria,Vacaria,BR,-50.93,-28.51,54.36,50,7,4.38
489,tasiilaq,Tasiilaq,GL,-37.64,65.61,42.8,38,0,10.29
490,berdigestyakh,Berdigestyakh,RU,126.7,62.1,35.15,72,0,4.83
491,gramsh,Gramsh,AL,20.18,40.87,50.94,66,0,2.98
492,pahrump,Pahrump,US,-115.98,36.21,87.01,9,0,5.99
493,portland,Portland,US,-122.68,45.52,70,19,75,12.75
494,aksarka,Aksarka,RU,67.8,66.56,17.19,94,100,8.25
497,tongren,Tongren,CN,109.19,27.72,72.09,83,91,2.98
498,arnoldstein,Arnoldstein,AT,13.71,46.55,48.99,86,40,4.68
499,hervey bay,Hervey Bay,AU,152.85,-25.3,66,75,1,8.01
500,okhotsk,Okhotsk,RU,143.3,59.38,33.76,90,100,3.71
501,vanimo,Vanimo,PG,141.3,-2.67,82.06,75,100,6.17
502,kokopo,Kokopo,PG,152.26,-4.35,83.12,74,100,2.53
504,naze,Naze,JP,129.48,28.37,73.4,94,75,2.24
505,boende,Boende,CD,20.87,-0.22,76.39,74,55,2.13
506,bumba,Bumba,CD,22.47,2.18,72.93,84,21,4.07
507,hargeysa,Hargeisa,SO,44.06,9.56,73.42,53,95,4.81
508,muroto,Muroto-misakicho,JP,134.15,33.28,66.2,93,75,4.7
509,itarema,Itarema,BR,-39.92,-2.92,78.3,89,100,17.31
510,sambava,Sambava,MG,50.17,-14.27,72.84,78,1,6.13
511,orthez,Orthez,FR,-0.77,43.49,69.8,73,75,14.99
512,mantua,Province of Mantua,IT,10.78,45.17,57.99,66,68,3
513,gordeyevka,Gordeyevka,RU,31.97,52.96,54.25,87,98,5.68
514,mlonggo,Mlonggo,ID,110.7,-6.53,78.69,84,0,4.38
515,lahat,Lahat,ID,103.53,-3.8,73.98,89,99,1.23
516,muhos,Muhos,FI,25.99,64.81,37.4,92,3,3.36
517,caravelas,Caravelas,BR,-39.25,-17.71,72.25,77,9,5.46
518,teya,Teya,RU,92.63,60.38,37.49,84,100,10.96
519,kendari,Kendari,ID,122.5,-3.94,77.74,87,92,1.88
520,bambanglipuro,Bambanglipuro,ID,110.28,-7.95,77.41,86,67,4.27
521,tsabong,Tsabong,BW,22.4,-26.02,65.21,19,0,4.29
522,jardim,Jardim,BR,-56.14,-21.48,77.22,48,45,3.89
523,tigil,Tigil',RU,158.67,57.8,36.7,76,83,11.56
524,kidal,Kidal,ML,1.41,18.44,86.09,26,44,9.08
525,coxim,Coxim,BR,-54.76,-18.51,74.62,55,29,2.53
526,mechanicsville,Mechanicsville,US,-77.37,37.61,78.8,22,40,17.22
527,tual,Tual,ID,132.75,-5.67,83.34,74,97,10.51
528,melfi,Melfi,IT,15.65,41,50,66,5,3.36
529,omboue,Omboué,GA,9.26,-1.57,78.82,91,100,4.83
530,suntar,Suntar,RU,117.63,62.14,39.78,66,31,4.54
531,lagos,Lagos,NG,3.75,6.58,80.6,88,20,2.24
532,harper,Harper,LR,-7.72,4.38,80.65,83,91,5.26
533,rocha,Rocha,UY,-54.33,-34.48,56.46,94,100,4.27
534,san lorenzo,San Lorenzo,PY,-57.53,-25.33,84.2,45,97,6.93
535,lancaster,Lancaster,US,-76.25,40.25,62.6,36,1,18.34
536,del rio,Del Rio,US,-100.9,29.36,102.2,29,1,11.41
538,kudahuvadhoo,Kudahuvadhoo,MV,72.89,2.67,84.07,79,100,17.67
539,teknaf,Teknāf,BD,92.31,20.86,77.23,86,16,3.6
540,basco,Basco,PH,121.97,20.45,82.6,87,46,14.56
541,rio verde de mato grosso,Rio Verde de Mato Grosso,BR,-54.84,-18.92,73.17,56,40,1.97
542,guerrero negro,Guerrero Negro,MX,-114.06,27.98,70.86,62,0,21.09
544,tucurui,Tucuruí,BR,-49.67,-3.77,77.31,90,93,1.86
545,liverpool,Liverpool,GB,-2.98,53.41,48.99,70,16,19.46
546,fremont,Fremont,US,-121.99,37.55,79,40,40,14.99
547,erenhot,Erenhot,CN,111.98,43.65,59.22,20,0,9.89
549,salinopolis,Salinópolis,BR,-47.36,-0.61,80.76,84,85,9.95
550,tiznit,Tiznit Province,MA,-9.5,29.58,64.22,56,2,2.98
552,benguela,Benguela,AO,13.41,-12.58,77.07,80,0,2.55
553,harnosand,Härnösand,SE,17.94,62.63,39.99,73,7,4.7
554,talaya,Talaya,RU,152.75,61.38,26.49,89,100,6.35
555,meulaboh,Meulaboh,ID,96.13,4.14,76.95,83,100,3.6
556,turukhansk,Turukhansk,RU,87.98,65.82,22.21,95,81,10.56
557,severobaykalsk,Severobaykal'sk,RU,109.32,55.65,38.84,58,15,3.13
558,finnsnes,Finnsnes,NO,17.98,69.23,35.6,74,100,18.34
559,fallon,Fallon,US,-118.78,39.47,72,7,75,5.82
560,tandil,Tandil,AR,-59.13,-37.32,57.99,81,69,1.01
561,nioro,Nioro,GM,-15.75,13.35,76.71,47,16,8.93
562,conceicao da barra,Conceição da Barra,BR,-39.73,-18.59,69.73,88,36,4.94
563,takhtamygda,Takhtamygda,RU,123.57,54.1,43.75,46,20,3.91
565,iralaya,Iralaya,HN,-83.23,15,86,70,40,8.05
566,polunochnoye,Polunochnoye,RU,60.42,60.87,40.19,84,57,5.12
567,san joaquin,San Joaquin,VE,-67.79,10.26,77.85,69,83,8.97
568,portmore,Portmore,JM,-76.87,17.97,82.99,88,75,8.05
569,dakar,Dakar,SN,-17.44,14.69,71.6,88,87,13.87
570,dassun,Dassun,PH,121.68,17.72,81.3,81,46,7.87
572,fethiye,Fethiye,TR,29.12,36.62,51.8,100,75,4.7
573,eirunepe,Eirunepé,BR,-69.87,-6.66,75.99,91,61,2.3
574,faya,Faya,SA,42.45,18.39,66.2,63,90,7.25
575,marrakesh,Marrakesh,MA,-8.01,31.63,71.6,56,3,3.36
576,friendly,Friendly,US,-76.98,38.75,71.6,50,1,13.87
577,vallenar,Vallenar,CL,-70.76,-28.57,60.01,61,0,0.47
578,ambon,Ambon City,ID,128.18,-3.7,78.8,94,20,3.36
579,praia,Praia,CV,-23.51,14.92,75.2,73,40,14.99
580,kathmandu,Kathmandu,NP,85.32,27.72,59,100,20,2.24
581,pontianak,Pontianak,ID,109.33,-0.03,77,94,40,3.36
582,saint-joseph,Saint-Joseph,RE,55.62,-21.37,75.2,73,21,5.82
583,dubbo,Dubbo,AU,148.62,-32.25,51.8,81,0,11.41
584,mackay,Mackay,AU,149.2,-21.15,68,72,75,12.75
585,tekeli,Tekeli,KZ,78.82,44.83,47.86,35,38,5.32
586,laguna,Laguna,US,-121.42,38.42,84.99,17,1,6.8
587,mwanza,Mwanza,TZ,32.9,-2.52,73.4,78,20,9.31
588,mwingi,Mwingi,KE,38.06,-0.93,65.5,71,69,5.06
589,bilma,Bilma,NE,12.92,18.69,84.33,11,0,15.37
590,belmonte,Belmonte,BR,-38.88,-15.86,75.2,73,40,3.36
591,vacaville,Vacaville,US,-121.99,38.36,82.4,28,1,3.36
